*******************************************************************************
Ephemeris / WWW_USER Mon Mar 10 06:59:45 2025 Pasadena, USA      / Horizons    
*******************************************************************************
Target body name: (2019 AU)                       {source: JPL#11}
Center body name: Earth (399)                     {source: DE441}
Center-site name: Mauna Kea
*******************************************************************************
Start time      : A.D. 2018-Dec-22 03:58:00.0000 UT      
Stop  time      : A.D. 2018-Dec-22 16:42:00.0000 UT      
Step-size       : 1 minutes
*******************************************************************************
Target pole/equ : undefined
Target radii    : undefined                                                    
Center geodetic : 204.5278, 19.8260847, 4.21024   {E-lon(deg),Lat(deg),Alt(km)}
Center cylindric: 204.5278, 6006.35451, 2151.0229 {E-lon(deg),Dxy(km),Dz(km)}
Center pole/equ : ITRF93                          {East-longitude positive}
Center radii    : 6378.137, 6378.137, 6356.752 km {Equator_a, b, pole_c}       
Target primary  : Sun
Vis. interferer : MOON (R_eq= 1737.400) km        {source: DE441}
Rel. light bend : Sun                             {source: DE441}
Rel. lght bnd GM: 1.3271E+11 km^3/s^2                                          
Small-body perts: Yes                             {source: SB441-N16}
Atmos refraction: NO (AIRLESS)
RA format       : HMS
Time format     : CAL 
Calendar mode   : Mixed Julian/Gregorian
RTS-only print  : NO       
EOP file        : eop.250307.p250603                                           
EOP coverage    : DATA-BASED 1962-JAN-20 TO 2025-MAR-07. PREDICTS-> 2025-JUN-02
Units conversion: 1 au= 149597870.700 km, c= 299792.458 km/s, 1 day= 86400.0 s 
Table cut-offs 1: Elevation (-90.0deg=NO ),Airmass (>38.000=NO), Daylight (YES)
Table cut-offs 2: Solar elongation (  0.0,180.0=NO ),Local Hour Angle( 0.0=NO )
Table cut-offs 3: RA/DEC angular rate (     0.0=NO )                           
*******************************************************************************
Initial IAU76/J2000 heliocentric ecliptic osculating elements (au, days, deg.):
  EPOCH=  2458490.5 ! 2019-Jan-07.00 (TDB)         Residual RMS= .17143        
   EC= .1028488096127525   QR= .9927870416208908   TP= 2458466.0562707144      
   OM= 109.6543146265929   W=  330.7265060973358   IN= 5.020660041219873       
  Equivalent ICRF heliocentric cartesian coordinates (au, au/d):
   X=-2.730606646751524E-01  Y= 8.866895536052930E-01  Z= 3.780071563225811E-01
  VX=-1.742089442644723E-02 VY=-4.449382429672076E-03 VZ=-2.237797348809624E-04
Asteroid physical parameters (km, seconds, rotational period in hours):        
   GM= n.a.                RAD= n.a.               ROTPER= n.a.                
   H= 26.7                 G= .150                 B-V= n.a.                   
                           ALBEDO= n.a.            STYP= n.a.                  
*******************************************************************************
 Date__(UT)__HR:MN     R.A._________(ICRF)_________DEC
******************************************************
$$SOE
 2018-Dec-22 08:04  m  04 25 44.016862 -46 05 37.67247
 2018-Dec-22 08:05  m  04 25 44.118871 -46 05 33.94468
 2018-Dec-22 08:06  m  04 25 44.220802 -46 05 30.21320
 2018-Dec-22 08:07  m  04 25 44.322655 -46 05 26.47801
 2018-Dec-22 08:08  m  04 25 44.424433 -46 05 22.73912
 2018-Dec-22 08:09  m  04 25 44.526138 -46 05 18.99652
 2018-Dec-22 08:10  m  04 25 44.627772 -46 05 15.25021
 2018-Dec-22 08:11  m  04 25 44.729337 -46 05 11.50019
 2018-Dec-22 08:12  m  04 25 44.830835 -46 05 07.74646
 2018-Dec-22 08:13  m  04 25 44.932268 -46 05 03.98901
 2018-Dec-22 08:14  m  04 25 45.033639 -46 05 00.22784
 2018-Dec-22 08:15  m  04 25 45.134948 -46 04 56.46295
 2018-Dec-22 08:16  m  04 25 45.236199 -46 04 52.69434
 2018-Dec-22 08:17  m  04 25 45.337392 -46 04 48.92200
 2018-Dec-22 08:18  m  04 25 45.438531 -46 04 45.14593
 2018-Dec-22 08:19  m  04 25 45.539617 -46 04 41.36613
 2018-Dec-22 08:20  m  04 25 45.640653 -46 04 37.58260
 2018-Dec-22 08:21  m  04 25 45.741639 -46 04 33.79534
 2018-Dec-22 08:22  m  04 25 45.842579 -46 04 30.00434
 2018-Dec-22 08:23  m  04 25 45.943474 -46 04 26.20961
 2018-Dec-22 08:24  m  04 25 46.044327 -46 04 22.41113
 2018-Dec-22 08:25  m  04 25 46.145139 -46 04 18.60892
 2018-Dec-22 08:26  m  04 25 46.245912 -46 04 14.80296
 2018-Dec-22 08:27  m  04 25 46.346649 -46 04 10.99326
 2018-Dec-22 08:28  m  04 25 46.447351 -46 04 07.17982
 2018-Dec-22 08:29  m  04 25 46.548021 -46 04 03.36262
 2018-Dec-22 08:30  m  04 25 46.648660 -46 03 59.54169
 2018-Dec-22 08:31  m  04 25 46.749271 -46 03 55.71700
 2018-Dec-22 08:32  m  04 25 46.849856 -46 03 51.88856
 2018-Dec-22 08:33  m  04 25 46.950416 -46 03 48.05637
 2018-Dec-22 08:34  m  04 25 47.050953 -46 03 44.22043
 2018-Dec-22 08:35  m  04 25 47.151471 -46 03 40.38074
 2018-Dec-22 08:36  m  04 25 47.251970 -46 03 36.53730
 2018-Dec-22 08:37  m  04 25 47.352453 -46 03 32.69009
 2018-Dec-22 08:38  m  04 25 47.452922 -46 03 28.83914
 2018-Dec-22 08:39  m  04 25 47.553379 -46 03 24.98443
 2018-Dec-22 08:40  m  04 25 47.653826 -46 03 21.12596
 2018-Dec-22 08:41  m  04 25 47.754265 -46 03 17.26373
 2018-Dec-22 08:42  m  04 25 47.854697 -46 03 13.39775
 2018-Dec-22 08:43  m  04 25 47.955126 -46 03 09.52801
 2018-Dec-22 08:44  m  04 25 48.055553 -46 03 05.65451
 2018-Dec-22 08:45  t  04 25 48.155980 -46 03 01.77725
 2018-Dec-22 08:46  m  04 25 48.256409 -46 02 57.89624
 2018-Dec-22 08:47  e  04 25 48.356843 -46 02 54.01146
 2018-Dec-22 08:48  m  04 25 48.457282 -46 02 50.12293
 2018-Dec-22 08:49  m  04 25 48.557730 -46 02 46.23063
 2018-Dec-22 08:50  m  04 25 48.658188 -46 02 42.33458
 2018-Dec-22 08:51  m  04 25 48.758659 -46 02 38.43477
 2018-Dec-22 08:52  m  04 25 48.859144 -46 02 34.53120
 2018-Dec-22 08:53  m  04 25 48.959646 -46 02 30.62387
 2018-Dec-22 08:54  m  04 25 49.060166 -46 02 26.71279
 2018-Dec-22 08:55  m  04 25 49.160706 -46 02 22.79795
 2018-Dec-22 08:56  m  04 25 49.261269 -46 02 18.87935
 2018-Dec-22 08:57  m  04 25 49.361857 -46 02 14.95699
 2018-Dec-22 08:58  m  04 25 49.462472 -46 02 11.03088
 2018-Dec-22 08:59  m  04 25 49.563115 -46 02 07.10101
 2018-Dec-22 09:00  m  04 25 49.663789 -46 02 03.16739
 2018-Dec-22 09:01  m  04 25 49.764495 -46 01 59.23001
 2018-Dec-22 09:02  m  04 25 49.865237 -46 01 55.28889
 2018-Dec-22 09:03  m  04 25 49.966015 -46 01 51.34401
 2018-Dec-22 09:04  m  04 25 50.066833 -46 01 47.39537
 2018-Dec-22 09:05  m  04 25 50.167691 -46 01 43.44299
 2018-Dec-22 09:06  m  04 25 50.268592 -46 01 39.48686
 2018-Dec-22 09:07  m  04 25 50.369538 -46 01 35.52699
 2018-Dec-22 09:08  m  04 25 50.470531 -46 01 31.56336
 2018-Dec-22 09:09  m  04 25 50.571574 -46 01 27.59600
 2018-Dec-22 09:10  m  04 25 50.672667 -46 01 23.62489
 2018-Dec-22 09:11  m  04 25 50.773814 -46 01 19.65003
 2018-Dec-22 09:12  m  04 25 50.875015 -46 01 15.67144
 2018-Dec-22 09:13  m  04 25 50.976274 -46 01 11.68911
 2018-Dec-22 09:14  m  04 25 51.077592 -46 01 07.70304
 2018-Dec-22 09:15  m  04 25 51.178972 -46 01 03.71323
 2018-Dec-22 09:16  m  04 25 51.280414 -46 00 59.71970
 2018-Dec-22 09:17  m  04 25 51.381922 -46 00 55.72243
 2018-Dec-22 09:18  m  04 25 51.483498 -46 00 51.72143
 2018-Dec-22 09:19  m  04 25 51.585142 -46 00 47.71670
 2018-Dec-22 09:20  m  04 25 51.686858 -46 00 43.70825
 2018-Dec-22 09:21  m  04 25 51.788648 -46 00 39.69607
 2018-Dec-22 09:22  m  04 25 51.890513 -46 00 35.68018
 2018-Dec-22 09:23  m  04 25 51.992455 -46 00 31.66056
 2018-Dec-22 09:24  m  04 25 52.094477 -46 00 27.63723
 2018-Dec-22 09:25  m  04 25 52.196580 -46 00 23.61018
 2018-Dec-22 09:26  m  04 25 52.298767 -46 00 19.57942
 2018-Dec-22 09:27  m  04 25 52.401039 -46 00 15.54495
 2018-Dec-22 09:28  m  04 25 52.503399 -46 00 11.50678
 2018-Dec-22 09:29  m  04 25 52.605848 -46 00 07.46490
 2018-Dec-22 09:30  m  04 25 52.708389 -46 00 03.41932
 2018-Dec-22 09:31  m  04 25 52.811023 -45 59 59.37004
 2018-Dec-22 09:32  m  04 25 52.913753 -45 59 55.31707
 2018-Dec-22 09:33  m  04 25 53.016580 -45 59 51.26040
 2018-Dec-22 09:34  m  04 25 53.119507 -45 59 47.20005
 2018-Dec-22 09:35  m  04 25 53.222536 -45 59 43.13601
 2018-Dec-22 09:36  m  04 25 53.325668 -45 59 39.06828
 2018-Dec-22 09:37  m  04 25 53.428905 -45 59 34.99687
 2018-Dec-22 09:38  m  04 25 53.532250 -45 59 30.92179
 2018-Dec-22 09:39  m  04 25 53.635705 -45 59 26.84304
 2018-Dec-22 09:40  m  04 25 53.739271 -45 59 22.76061
 2018-Dec-22 09:41  m  04 25 53.842950 -45 59 18.67452
 2018-Dec-22 09:42  m  04 25 53.946745 -45 59 14.58476
 2018-Dec-22 09:43  m  04 25 54.050658 -45 59 10.49135
 2018-Dec-22 09:44  m  04 25 54.154690 -45 59 06.39427
 2018-Dec-22 09:45  m  04 25 54.258843 -45 59 02.29355
 2018-Dec-22 09:46  m  04 25 54.363120 -45 58 58.18918
 2018-Dec-22 09:47  m  04 25 54.467522 -45 58 54.08116
 2018-Dec-22 09:48  m  04 25 54.572052 -45 58 49.96951
 2018-Dec-22 09:49  m  04 25 54.676710 -45 58 45.85421
 2018-Dec-22 09:50  m  04 25 54.781501 -45 58 41.73529
 2018-Dec-22 09:51  m  04 25 54.886424 -45 58 37.61273
 2018-Dec-22 09:52  m  04 25 54.991482 -45 58 33.48655
 2018-Dec-22 09:53  m  04 25 55.096678 -45 58 29.35675
 2018-Dec-22 09:54  m  04 25 55.202013 -45 58 25.22334
 2018-Dec-22 09:55  m  04 25 55.307489 -45 58 21.08631
 2018-Dec-22 09:56  m  04 25 55.413108 -45 58 16.94568
 2018-Dec-22 09:57  m  04 25 55.518872 -45 58 12.80145
 2018-Dec-22 09:58  m  04 25 55.624783 -45 58 08.65361
 2018-Dec-22 09:59  m  04 25 55.730843 -45 58 04.50219
 2018-Dec-22 10:00  m  04 25 55.837053 -45 58 00.34717
 2018-Dec-22 10:01  m  04 25 55.943416 -45 57 56.18857
 2018-Dec-22 10:02  m  04 25 56.049934 -45 57 52.02640
 2018-Dec-22 10:03  m  04 25 56.156609 -45 57 47.86064
 2018-Dec-22 10:04  m  04 25 56.263442 -45 57 43.69132
 2018-Dec-22 10:05  m  04 25 56.370436 -45 57 39.51844
 2018-Dec-22 10:06  m  04 25 56.477592 -45 57 35.34200
